{
   "meta":{
      "timestamp":"2020-08-13T19:28:11.942289Z",
      "stations_updated":"2020-08-09",
      "cache-timestamp":"2020-08-13T19:27:36.763000Z"
   },
   "altimeter":{
      "repr":"A3007",
      "value":30.07,
      "spoken":"three zero point zero seven"
   },
   "clouds":[

   ],
   "flight_rules":"VFR",
   "other":[

   ],
   "sanitized":"KRKD 131856Z 20007KT 10SM 27/17 A3007 RMK AO2 SLP183 T02720172",
   "visibility":{
      "repr":"10",
      "value":10,
      "spoken":"one zero"
   },
   "wind_direction":{
      "repr":"200",
      "value":200,
      "spoken":"two zero zero"
   },
   "wind_gust":null,
   "wind_speed":{
      "repr":"07",
      "value":7,
      "spoken":"seven"
   },
   "wx_codes":[

   ],
   "raw":"KRKD 131856Z AUTO 20007KT 10SM CLR 27/17 A3007 RMK AO2 SLP183 T02720172",
   "station":"KRKD",
   "time":{
      "repr":"131856Z",
      "dt":"2020-08-13T18:56:00Z"
   },
   "remarks":"RMK AO2 SLP183 T02720172",
   "dewpoint":{
      "repr":"17",
      "value":17,
      "spoken":"one seven"
   },
   "remarks_info":{
      "dewpoint_decimal":{
         "repr":"17.2",
         "value":17.2,
         "spoken":"one seven point two"
      },
      "temperature_decimal":{
         "repr":"27.2",
         "value":27.2,
         "spoken":"two seven point two"
      }
   },
   "runway_visibility":[

   ],
   "temperature":{
      "repr":"27",
      "value":27,
      "spoken":"two seven"
   },
   "wind_variable_direction":[

   ],
   "units":{
      "altimeter":"inHg",
      "altitude":"ft",
      "temperature":"C",
      "visibility":"sm",
      "wind_speed":"kt"
   },
   "info":{
      "city":"Rockland",
      "country":"US",
      "elevation_ft":56,
      "elevation_m":17,
      "iata":"RKD",
      "icao":"KRKD",
      "latitude":44.06010056,
      "longitude":-69.09919739,
      "name":"Knox County Regional Airport",
      "note":null,
      "reporting":true,
      "runways":[
         {
            "length_ft":5007,
            "width_ft":100,
            "surface":"asphalt",
            "lights":true,
            "ident1":"13",
            "ident2":"31"
         },
         {
            "length_ft":3900,
            "width_ft":100,
            "surface":"asphalt",
            "lights":true,
            "ident1":"03",
            "ident2":"21"
         }
      ],
      "state":"ME",
      "type":"small_airport",
      "website":null,
      "wiki":null
   }
}